{
  "type": "FeatureCollection",
  "features": [
    {
      "type": "Feature",
      "properties": {
        "norad_id": 31452,
        "name": "FENGYUN 1C DEB",
        "group": "fengyun-1c-debris",
        "lat": 12.030338474681834,
        "lon": -32.34009187204127,
        "alt_km": 860.6978613637975,
        "timestamp": "2025-12-08T10:52:03.230093+00:00",
        "meta_object_name": "FENGYUN 1C DEB",
        "meta_object_id": "1999-025BUQ",
        "meta_epoch": "2025-12-02T05:28:59.848608",
        "meta_mean_motion": 14.15144251,
        "meta_eccentricity": 0.004031,
        "meta_inclination": 98.658,
        "meta_ra_of_asc_node": 323.48,
        "meta_arg_of_pericenter": 157.7123,
        "meta_mean_anomaly": 202.5814,
        "meta_ephemeris_type": 0,
        "meta_classification_type": "U",
        "meta_norad_cat_id": 31452,
        "meta_element_set_no": 999,
        "meta_rev_at_epoch": 96057,
        "meta_bstar": 0.00046116,
        "meta_mean_motion_dot": 8.6e-06,
        "meta_mean_motion_ddot": 0,
        "tle_line1": "1 31452U 99025BUQ 25336.22847047  .00000860  00000+0  46116-3 0  9997",
        "tle_line2": "2 31452  98.6580 323.4800 0040310 157.7123 202.5814 14.15144251960574"
      },
      "geometry": {
        "type": "Point",
        "coordinates": [
          -32.34009187204127,
          12.030338474681834
        ]
      }
    },
    {
      "type": "Feature",
      "properties": {
        "norad_id": 31455,
        "name": "FENGYUN 1C DEB",
        "group": "fengyun-1c-debris",
        "lat": 47.5180343819827,
        "lon": -38.611491958040816,
        "alt_km": 697.1380755078462,
        "timestamp": "2025-12-08T10:52:03.230103+00:00",
        "meta_object_name": "FENGYUN 1C DEB",
        "meta_object_id": "1999-025BUT",
        "meta_epoch": "2025-12-01T05:06:27.684288",
        "meta_mean_motion": 14.11407074,
        "meta_eccentricity": 0.0218887,
        "meta_inclination": 98.5737,
        "meta_ra_of_asc_node": 323.9486,
        "meta_arg_of_pericenter": 84.0104,
        "meta_mean_anomaly": 278.5966,
        "meta_ephemeris_type": 0,
        "meta_classification_type": "U",
        "meta_norad_cat_id": 31455,
        "meta_element_set_no": 999,
        "meta_rev_at_epoch": 95941,
        "meta_bstar": 0.00026567,
        "meta_mean_motion_dot": 5.62e-06,
        "meta_mean_motion_ddot": 0,
        "tle_line1": "1 31455U 99025BUT 25335.21282042  .00000562  00000+0  26567-3 0  9993",
        "tle_line2": "2 31455  98.5737 323.9486 0218887  84.0104 278.5966 14.11407074959415"
      },
      "geometry": {
        "type": "Point",
        "coordinates": [
          -38.611491958040816,
          47.5180343819827
        ]
      }
    },
    {
      "type": "Feature",
      "properties": {
        "norad_id": 31456,
        "name": "FENGYUN 1C DEB",
        "group": "fengyun-1c-debris",
        "lat": -80.7422163285165,
        "lon": 152.59580064854126,
        "alt_km": 729.4981848759908,
        "timestamp": "2025-12-08T10:52:03.230113+00:00",
        "meta_object_name": "FENGYUN 1C DEB",
        "meta_object_id": "1999-025BUU",
        "meta_epoch": "2025-12-06T02:39:24.925824",
        "meta_mean_motion": 14.42343654,
        "meta_eccentricity": 0.00676762,
        "meta_inclination": 98.5779,
        "meta_ra_of_asc_node": 82.4202,
        "meta_arg_of_pericenter": 334.5783,
        "meta_mean_anomaly": 25.2082,
        "meta_ephemeris_type": 0,
        "meta_classification_type": "U",
        "meta_norad_cat_id": 31456,
        "meta_element_set_no": 999,
        "meta_rev_at_epoch": 97371,
        "meta_bstar": 0.0014083504,
        "meta_mean_motion_dot": 4.738e-05,
        "meta_mean_motion_ddot": 0,
        "tle_line1": "1 31456U 99025BUU 25340.11070516  .00004738  00000+0  14084-2 0  9999",
        "tle_line2": "2 31456  98.5779  82.4202 0067676 334.5783  25.2082 14.42343654973711"
      },
      "geometry": {
        "type": "Point",
        "coordinates": [
          152.59580064854126,
          -80.7422163285165
        ]
      }
    },
    {
      "type": "Feature",
      "properties": {
        "norad_id": 31459,
        "name": "FENGYUN 1C DEB",
        "group": "fengyun-1c-debris",
        "lat": -12.149395246045488,
        "lon": 69.10647661636925,
        "alt_km": 704.0029983363856,
        "timestamp": "2025-12-08T10:52:03.230123+00:00",
        "meta_object_name": "FENGYUN 1C DEB",
        "meta_object_id": "1999-025BUX",
        "meta_epoch": "2025-12-03T23:33:06.597504",
        "meta_mean_motion": 14.43947822,
        "meta_eccentricity": 0.00935426,
        "meta_inclination": 98.1742,
        "meta_ra_of_asc_node": 246.583,
        "meta_arg_of_pericenter": 158.5595,
        "meta_mean_anomaly": 201.9555,
        "meta_ephemeris_type": 0,
        "meta_classification_type": "U",
        "meta_norad_cat_id": 31459,
        "meta_element_set_no": 999,
        "meta_rev_at_epoch": 64431,
        "meta_bstar": 0.0027458624,
        "meta_mean_motion_dot": 9.856e-05,
        "meta_mean_motion_ddot": 0,
        "tle_line1": "1 31459U 99025BUX 25337.98132636  .00009856  00000+0  27459-2 0  9991",
        "tle_line2": "2 31459  98.1742 246.5830 0093542 158.5595 201.9555 14.43947822644313"
      },
      "geometry": {
        "type": "Point",
        "coordinates": [
          69.10647661636925,
          -12.149395246045488
        ]
      }
    },
    {
      "type": "Feature",
      "properties": {
        "norad_id": 31462,
        "name": "FENGYUN 1C DEB",
        "group": "fengyun-1c-debris",
        "lat": 49.33051380614014,
        "lon": -168.76593266484915,
        "alt_km": 843.3067319199354,
        "timestamp": "2025-12-08T10:52:03.230133+00:00",
        "meta_object_name": "FENGYUN 1C DEB",
        "meta_object_id": "1999-025BVA",
        "meta_epoch": "2025-12-07T12:52:33.944736",
        "meta_mean_motion": 14.13001143,
        "meta_eccentricity": 0.00318357,
        "meta_inclination": 98.6906,
        "meta_ra_of_asc_node": 0.0906,
        "meta_arg_of_pericenter": 219.4007,
        "meta_mean_anomaly": 292.294,
        "meta_ephemeris_type": 0,
        "meta_classification_type": "U",
        "meta_norad_cat_id": 31462,
        "meta_element_set_no": 999,
        "meta_rev_at_epoch": 95782,
        "meta_bstar": 0.00055204613,
        "meta_mean_motion_dot": 9.92e-06,
        "meta_mean_motion_ddot": 0,
        "tle_line1": "1 31462U 99025BVA 25341.53650399  .00000992  00000+0  55205-3 0  9995",
        "tle_line2": "2 31462  98.6906   0.0906 0031835 219.4007 292.2940 14.13001143957821"
      },
      "geometry": {
        "type": "Point",
        "coordinates": [
          -168.76593266484915,
          49.33051380614014
        ]
      }
    },
    {
      "type": "Feature",
      "properties": {
        "norad_id": 31463,
        "name": "FENGYUN 1C DEB",
        "group": "fengyun-1c-debris",
        "lat": 80.63460939264567,
        "lon": -111.92425342250587,
        "alt_km": 635.5217860320454,
        "timestamp": "2025-12-08T10:52:03.230143+00:00",
        "meta_object_name": "FENGYUN 1C DEB",
        "meta_object_id": "1999-025BVB",
        "meta_epoch": "2025-12-01T16:22:11.548704",
        "meta_mean_motion": 14.36878903,
        "meta_eccentricity": 0.02141373,
        "meta_inclination": 99.0794,
        "meta_ra_of_asc_node": 316.76,
        "meta_arg_of_pericenter": 72.118,
        "meta_mean_anomaly": 290.3231,
        "meta_ephemeris_type": 0,
        "meta_classification_type": "U",
        "meta_norad_cat_id": 31463,
        "meta_element_set_no": 999,
        "meta_rev_at_epoch": 64561,
        "meta_bstar": 0.00046325906,
        "meta_mean_motion_dot": 1.728e-05,
        "meta_mean_motion_ddot": 0,
        "tle_line1": "1 31463U 99025BVB 25335.68207811  .00001728  00000+0  46326-3 0  9994",
        "tle_line2": "2 31463  99.0794 316.7600 0214137  72.1180 290.3231 14.36878903645618"
      },
      "geometry": {
        "type": "Point",
        "coordinates": [
          -111.92425342250587,
          80.63460939264567
        ]
      }
    },
    {
      "type": "Feature",
      "properties": {
        "norad_id": 31464,
        "name": "FENGYUN 1C DEB",
        "group": "fengyun-1c-debris",
        "lat": 78.02673178508395,
        "lon": -17.57634319921618,
        "alt_km": 874.4561369724306,
        "timestamp": "2025-12-08T10:52:03.230154+00:00",
        "meta_object_name": "FENGYUN 1C DEB",
        "meta_object_id": "1999-025BVC",
        "meta_epoch": "2025-12-06T23:20:55.154976",
        "meta_mean_motion": 14.1246621,
        "meta_eccentricity": 0.00430048,
        "meta_inclination": 98.7955,
        "meta_ra_of_asc_node": 27.8636,
        "meta_arg_of_pericenter": 258.8996,
        "meta_mean_anomaly": 221.8303,
        "meta_ephemeris_type": 0,
        "meta_classification_type": "U",
        "meta_norad_cat_id": 31464,
        "meta_element_set_no": 999,
        "meta_rev_at_epoch": 94598,
        "meta_bstar": 0.00049566827,
        "meta_mean_motion_dot": 8.79e-06,
        "meta_mean_motion_ddot": 0,
        "tle_line1": "1 31464U 99025BVC 25340.97286059  .00000879  00000+0  49567-3 0  9990",
        "tle_line2": "2 31464  98.7955  27.8636 0043004 258.8996 221.8303 14.12466210945984"
      },
      "geometry": {
        "type": "Point",
        "coordinates": [
          -17.57634319921618,
          78.02673178508395
        ]
      }
    }
  ]
}